{
    "links": {
        "self": "http://www.neowsapp.com/rest/v1/neo/3775039?api_key=iIulBulltgU6a56xZRHN4H3l9WmuAYTsLGpBGhQ2"
    },
    "id": "3775039",
    "neo_reference_id": "3775039",
    "name": "(2017 KL27)",
    "designation": "2017 KL27",
    "nasa_jpl_url": "http://ssd.jpl.nasa.gov/sbdb.cgi?sstr=3775039",
    "absolute_magnitude_h": 23.6,
    "estimated_diameter": {
        "kilometers": {
            "estimated_diameter_min": 0.0506471459,
            "estimated_diameter_max": 0.1132504611
        },
        "meters": {
            "estimated_diameter_min": 50.6471458835,
            "estimated_diameter_max": 113.2504610618
        },
        "miles": {
            "estimated_diameter_min": 0.0314706677,
            "estimated_diameter_max": 0.0703705522
        },
        "feet": {
            "estimated_diameter_min": 166.1651821003,
            "estimated_diameter_max": 371.5566426699
        }
    },
    "is_potentially_hazardous_asteroid": false,
    "close_approach_data": [
        {
            "close_approach_date": "2017-05-10",
            "close_approach_date_full": "2017-May-10 02:33",
            "epoch_date_close_approach": 1494383580000,
            "relative_velocity": {
                "kilometers_per_second": "7.572572686",
                "kilometers_per_hour": "27261.2616695647",
                "miles_per_hour": "16939.0878412915"
            },
            "miss_distance": {
                "astronomical": "0.0833871322",
                "lunar": "32.4375944258",
                "kilometers": "12474537.362528414",
                "miles": "7751318.0836795532"
            },
            "orbiting_body": "Earth"
        },
        {
            "close_approach_date": "2189-07-02",
            "close_approach_date_full": "2189-Jul-02 05:12",
            "epoch_date_close_approach": 6926793120000,
            "relative_velocity": {
                "kilometers_per_second": "16.0018749494",
                "kilometers_per_hour": "57606.7498178119",
                "miles_per_hour": "35794.5940742954"
            },
            "miss_distance": {
                "astronomical": "0.3158840118",
                "lunar": "122.8788805902",
                "kilometers": "47255575.332334866",
                "miles": "29363252.9193825108"
            },
            "orbiting_body": "Earth"
        }
    ],
    "orbital_data": {
        "orbit_id": "2",
        "orbit_determination_date": "2017-06-03 06:19:01",
        "first_observation_date": "2017-05-24",
        "last_observation_date": "2017-05-30",
        "data_arc_in_days": 6,
        "observations_used": 21,
        "orbit_uncertainty": "8",
        "minimum_orbit_intersection": ".0622311",
        "jupiter_tisserand_invariant": "3.386",
        "epoch_osculation": "2457898.5",
        "eccentricity": ".5486121212091961",
        "semi_major_axis": "2.275150958834678",
        "inclination": "6.282855789262003",
        "ascending_node_longitude": "185.555631622715",
        "orbital_period": "1253.469450123045",
        "perihelion_distance": "1.026975565237249",
        "perihelion_argument": "43.14090799799951",
        "aphelion_distance": "3.523326352432107",
        "perihelion_time": "2457884.411540646002",
        "mean_anomaly": "4.046245695849555",
        "mean_motion": ".28720285122598",
        "equinox": "J2000",
        "orbit_class": {
            "orbit_class_type": "AMO",
            "orbit_class_description": "Near-Earth asteroid orbits similar to that of 1221 Amor",
            "orbit_class_range": "1.017 AU < q (perihelion) < 1.3 AU"
        }
    },
    "is_sentry_object": false
}